start=new Date('2023-06-12T00:00:00.000Z').valueOf();
sats=[{"TIME_SYSTEM":"UTC","REV_AT_EPOCH":"12485","SITE":"AFETR","APOAPSIS":"548.193","COUNTRY_CODE":"US","TLE_LINE1":"1 47870U 21021L   23162.68789015  .00008705  00000-0  60248-3 0  9993","ELEMENT_SET_NO":"999","INCLINATION":"53.0530","CLASSIFICATION_TYPE":"U","SEMIMAJOR_AXIS":"6925.330","DECAY_DATE":null,"LAUNCH_DATE":"2021-03-14","NORAD_CAT_ID":"47870","CENTER_NAME":"EARTH","OBJECT_ID":"2021-021L","MEAN_MOTION_DDOT":"0.0000000000000","MEAN_MOTION_DOT":"0.00008705","ECCENTRICITY":"0.00014410","MEAN_ANOMALY":"264.6275","RA_OF_ASC_NODE":"104.7781","PERIAPSIS":"546.197","FILE":"3930737","MEAN_ELEMENT_THEORY":"SGP4","OBJECT_TYPE":"PAYLOAD","REF_FRAME":"TEME","EPOCH":"2023-06-11T16:30:33.708960","EPHEMERIS_TYPE":"0","GP_ID":"233725018","OBJECT_NAME":"STARLINK-2326","TLE_LINE2":"2 47870  53.0530 104.7781 0001441  95.4879 264.6275 15.06406181124858","RCS_SIZE":"LARGE","MEAN_MOTION":"15.06406181","PERIOD":"95.592","BSTAR":"0.00060248000000","ARG_OF_PERICENTER":"95.4879"},{"MEAN_MOTION":"15.06424076","PERIOD":"95.591","BSTAR":"0.00165220000000","ARG_OF_PERICENTER":"107.2594","FILE":"3930737","MEAN_ELEMENT_THEORY":"SGP4","OBJECT_TYPE":"PAYLOAD","REF_FRAME":"TEME","EPOCH":"2023-06-11T20:45:59.535360","EPHEMERIS_TYPE":"0","GP_ID":"233725766","OBJECT_NAME":"STARLINK-2327","TLE_LINE2":"2 47871  53.0548  78.9870 0001039 107.2594 252.8509 15.06424076125334","RCS_SIZE":"LARGE","LAUNCH_DATE":"2021-03-14","NORAD_CAT_ID":"47871","CENTER_NAME":"EARTH","OBJECT_ID":"2021-021M","MEAN_MOTION_DDOT":"0.0000000000000","MEAN_MOTION_DOT":"0.00024430","ECCENTRICITY":"0.00010390","MEAN_ANOMALY":"252.8509","RA_OF_ASC_NODE":"78.9870","PERIAPSIS":"546.420","TIME_SYSTEM":"UTC","REV_AT_EPOCH":"12533","SITE":"AFETR","APOAPSIS":"547.859","COUNTRY_CODE":"US","ELEMENT_SET_NO":"999","TLE_LINE1":"1 47871U 21021M   23162.86527240  .00024430  00000-0  16522-2 0  9992","INCLINATION":"53.0548","CLASSIFICATION_TYPE":"U","SEMIMAJOR_AXIS":"6925.275","DECAY_DATE":null},{"CENTER_NAME":"EARTH","OBJECT_ID":"2021-021P","MEAN_MOTION_DDOT":"0.0000000000000","LAUNCH_DATE":"2021-03-14","NORAD_CAT_ID":"47873","MEAN_ANOMALY":"256.8769","RA_OF_ASC_NODE":"79.3658","PERIAPSIS":"546.454","MEAN_MOTION_DOT":"0.00022243","ECCENTRICITY":"0.00010300","REV_AT_EPOCH":"12531","SITE":"AFETR","TIME_SYSTEM":"UTC","INCLINATION":"53.0548","SEMIMAJOR_AXIS":"6925.302","CLASSIFICATION_TYPE":"U","DECAY_DATE":null,"APOAPSIS":"547.881","COUNTRY_CODE":"US","TLE_LINE1":"1 47873U 21021P   23162.78049899  .00022243  00000-0  15068-2 0  9998","ELEMENT_SET_NO":"999","PERIOD":"95.591","MEAN_MOTION":"15.06415125","BSTAR":"0.00150680000000","ARG_OF_PERICENTER":"103.2335","EPOCH":"2023-06-11T18:43:55.112736","EPHEMERIS_TYPE":"0","MEAN_ELEMENT_THEORY":"SGP4","FILE":"3930737","OBJECT_TYPE":"PAYLOAD","REF_FRAME":"TEME","RCS_SIZE":"LARGE","GP_ID":"233725515","OBJECT_NAME":"STARLINK-2329","TLE_LINE2":"2 47873  53.0548  79.3658 0001030 103.2335 256.8769 15.06415125125310"},{"NORAD_CAT_ID":"47874","LAUNCH_DATE":"2021-03-14","MEAN_MOTION_DDOT":"0.0000000000000","OBJECT_ID":"2021-021Q","CENTER_NAME":"EARTH","ECCENTRICITY":"0.00012550","MEAN_MOTION_DOT":"0.00025631","PERIAPSIS":"546.243","RA_OF_ASC_NODE":"33.7365","MEAN_ANOMALY":"276.2038","TIME_SYSTEM":"UTC","SITE":"AFETR","REV_AT_EPOCH":"12597","ELEMENT_SET_NO":"999","TLE_LINE1":"1 47874U 21021Q   23162.92287206  .00025631  00000-0  17318-2 0  9995","COUNTRY_CODE":"US","APOAPSIS":"547.981","DECAY_DATE":null,"CLASSIFICATION_TYPE":"U","SEMIMAJOR_AXIS":"6925.247","INCLINATION":"53.0555","MEAN_MOTION":"15.06433172","PERIOD":"95.590","ARG_OF_PERICENTER":"83.9094","BSTAR":"0.00173180000000","REF_FRAME":"TEME","OBJECT_TYPE":"PAYLOAD","FILE":"3930737","MEAN_ELEMENT_THEORY":"SGP4","EPHEMERIS_TYPE":"0","EPOCH":"2023-06-11T22:08:56.145984","OBJECT_NAME":"STARLINK-2330","TLE_LINE2":"2 47874  53.0555  33.7365 0001255  83.9094 276.2038 15.06433172125972","GP_ID":"233724768","RCS_SIZE":"LARGE"},{"NORAD_CAT_ID":"47875","LAUNCH_DATE":"2021-03-14","MEAN_MOTION_DDOT":"0.0000000000000","CENTER_NAME":"EARTH","OBJECT_ID":"2021-021R","ECCENTRICITY":"0.00014790","MEAN_MOTION_DOT":"0.00014620","PERIAPSIS":"546.176","MEAN_ANOMALY":"259.3792","RA_OF_ASC_NODE":"90.5926","TIME_SYSTEM":"UTC","REV_AT_EPOCH":"12466","SITE":"AFETR","COUNTRY_CODE":"US","ELEMENT_SET_NO":"999","TLE_LINE1":"1 47875U 21021R   23162.50681966  .00014620  00000-0  99821-3 0  9997","APOAPSIS":"548.225","DECAY_DATE":null,"INCLINATION":"53.0546","CLASSIFICATION_TYPE":"U","SEMIMAJOR_AXIS":"6925.335","MEAN_MOTION":"15.06404323","PERIOD":"95.592","BSTAR":"0.00099821000000","ARG_OF_PERICENTER":"100.7363","REF_FRAME":"TEME","MEAN_ELEMENT_THEORY":"SGP4","FILE":"3930615","OBJECT_TYPE":"PAYLOAD","EPHEMERIS_TYPE":"0","EPOCH":"2023-06-11T12:09:49.218624","OBJECT_NAME":"STARLINK-2331","TLE_LINE2":"2 47875  53.0546  90.5926 0001479 100.7363 259.3792 15.06404323124662","GP_ID":"233700849","RCS_SIZE":"LARGE"},{"OBJECT_TYPE":"PAYLOAD","MEAN_ELEMENT_THEORY":"SGP4","FILE":"3930737","REF_FRAME":"TEME","EPOCH":"2023-06-11T19:51:35.285472","EPHEMERIS_TYPE":"0","GP_ID":"233725266","TLE_LINE2":"2 47876  53.0542  89.1547 0001020  96.9507 263.1598 15.06420700125193","OBJECT_NAME":"STARLINK-2332","RCS_SIZE":"LARGE","MEAN_MOTION":"15.06420700","PERIOD":"95.591","ARG_OF_PERICENTER":"96.9507","BSTAR":"0.00129460000000","TIME_SYSTEM":"UTC","SITE":"AFETR","REV_AT_EPOCH":"12519","APOAPSIS":"547.856","TLE_LINE1":"1 47876U 21021S   23162.82749173  .00019065  00000-0  12946-2 0  9998","ELEMENT_SET_NO":"999","COUNTRY_CODE":"US","CLASSIFICATION_TYPE":"U","SEMIMAJOR_AXIS":"6925.285","INCLINATION":"53.0542","DECAY_DATE":null,"LAUNCH_DATE":"2021-03-14","NORAD_CAT_ID":"47876","OBJECT_ID":"2021-021S","CENTER_NAME":"EARTH","MEAN_MOTION_DDOT":"0.0000000000000","MEAN_MOTION_DOT":"0.00019065","ECCENTRICITY":"0.00010200","RA_OF_ASC_NODE":"89.1547","MEAN_ANOMALY":"263.1598","PERIAPSIS":"546.444"},{"APOAPSIS":"548.112","COUNTRY_CODE":"US","ELEMENT_SET_NO":"999","TLE_LINE1":"1 47877U 21021T   23162.64320174  .00022972  00000-0  15562-2 0  9993","INCLINATION":"53.0535","SEMIMAJOR_AXIS":"6925.358","CLASSIFICATION_TYPE":"U","DECAY_DATE":null,"TIME_SYSTEM":"UTC","REV_AT_EPOCH":"12515","SITE":"AFETR","MEAN_MOTION_DOT":"0.00022972","ECCENTRICITY":"0.00012830","MEAN_ANOMALY":"265.0775","RA_OF_ASC_NODE":"89.9751","PERIAPSIS":"546.334","LAUNCH_DATE":"2021-03-14","NORAD_CAT_ID":"47877","CENTER_NAME":"EARTH","OBJECT_ID":"2021-021T","MEAN_MOTION_DDOT":"0.0000000000000","GP_ID":"233726016","OBJECT_NAME":"STARLINK-2333","TLE_LINE2":"2 47877  53.0535  89.9751 0001283  95.0360 265.0775 15.06396926125155","RCS_SIZE":"LARGE","FILE":"3930737","MEAN_ELEMENT_THEORY":"SGP4","OBJECT_TYPE":"PAYLOAD","REF_FRAME":"TEME","EPOCH":"2023-06-11T15:26:12.630336","EPHEMERIS_TYPE":"0","BSTAR":"0.00155620000000","ARG_OF_PERICENTER":"95.0360","MEAN_MOTION":"15.06396926","PERIOD":"95.592"},{"NORAD_CAT_ID":"47878","LAUNCH_DATE":"2021-03-14","MEAN_MOTION_DDOT":"0.0000000000000","OBJECT_ID":"2021-021U","CENTER_NAME":"EARTH","ECCENTRICITY":"0.00013170","MEAN_MOTION_DOT":"0.00015912","PERIAPSIS":"546.330","RA_OF_ASC_NODE":"90.5250","MEAN_ANOMALY":"264.1982","TIME_SYSTEM":"UTC","SITE":"AFETR","REV_AT_EPOCH":"12467","TLE_LINE1":"1 47878U 21021U   23162.52156292  .00015912  00000-0  10850-2 0  9990","ELEMENT_SET_NO":"999","COUNTRY_CODE":"US","APOAPSIS":"548.154","DECAY_DATE":null,"SEMIMAJOR_AXIS":"6925.377","CLASSIFICATION_TYPE":"U","INCLINATION":"53.0538","MEAN_MOTION":"15.06390810","PERIOD":"95.593","ARG_OF_PERICENTER":"95.9157","BSTAR":"0.00108500000000","REF_FRAME":"TEME","OBJECT_TYPE":"PAYLOAD","MEAN_ELEMENT_THEORY":"SGP4","FILE":"3930482","EPHEMERIS_TYPE":"0","EPOCH":"2023-06-11T12:31:03.036288","TLE_LINE2":"2 47878  53.0538  90.5250 0001317  95.9157 264.1982 15.06390810124674","OBJECT_NAME":"STARLINK-2335","GP_ID":"233670816","RCS_SIZE":"LARGE"},{"ECCENTRICITY":"0.00011960","MEAN_MOTION_DOT":"0.00003352","PERIAPSIS":"546.398","RA_OF_ASC_NODE":"106.7292","MEAN_ANOMALY":"270.8165","NORAD_CAT_ID":"47879","LAUNCH_DATE":"2021-03-14","MEAN_MOTION_DDOT":"0.0000000000000","OBJECT_ID":"2021-021V","CENTER_NAME":"EARTH","ELEMENT_SET_NO":"999","TLE_LINE1":"1 47879U 21021V   23162.25295267  .00003352  00000-0  24384-3 0  9990","COUNTRY_CODE":"US","APOAPSIS":"548.055","DECAY_DATE":null,"SEMIMAJOR_AXIS":"6925.362","CLASSIFICATION_TYPE":"U","INCLINATION":"53.0540","TIME_SYSTEM":"UTC","SITE":"AFETR","REV_AT_EPOCH":"12506","ARG_OF_PERICENTER":"89.2960","BSTAR":"0.00024384000000","MEAN_MOTION":"15.06395734","PERIOD":"95.592","TLE_LINE2":"2 47879  53.0540 106.7292 0001196  89.2960 270.8165 15.06395734125068","OBJECT_NAME":"STARLINK-2336","GP_ID":"233692621","RCS_SIZE":"LARGE","REF_FRAME":"TEME","OBJECT_TYPE":"PAYLOAD","FILE":"3930529","MEAN_ELEMENT_THEORY":"SGP4","EPHEMERIS_TYPE":"0","EPOCH":"2023-06-11T06:04:15.110688"},{"BSTAR":"0.00126480000000","ARG_OF_PERICENTER":"75.7727","PERIOD":"95.592","MEAN_MOTION":"15.06402188","RCS_SIZE":"LARGE","OBJECT_NAME":"STARLINK-2337","TLE_LINE2":"2 47880  53.0530 100.3608 0001058  75.7727 284.3379 15.06402188125001","GP_ID":"233693370","EPHEMERIS_TYPE":"0","EPOCH":"2023-06-11T13:22:48.516672","REF_FRAME":"TEME","MEAN_ELEMENT_THEORY":"SGP4","FILE":"3930529","OBJECT_TYPE":"PAYLOAD","PERIAPSIS":"546.474","MEAN_ANOMALY":"284.3379","RA_OF_ASC_NODE":"100.3608","ECCENTRICITY":"0.00010580","MEAN_MOTION_DOT":"0.00018609","MEAN_MOTION_DDOT":"0.0000000000000","CENTER_NAME":"EARTH","OBJECT_ID":"2021-021W","NORAD_CAT_ID":"47880","LAUNCH_DATE":"2021-03-14","DECAY_DATE":null,"INCLINATION":"53.0530","CLASSIFICATION_TYPE":"U","SEMIMAJOR_AXIS":"6925.342","COUNTRY_CODE":"US","ELEMENT_SET_NO":"999","TLE_LINE1":"1 47880U 21021W   23162.55750598  .00018609  00000-0  12648-2 0  9998","APOAPSIS":"547.940","REV_AT_EPOCH":"12500","SITE":"AFETR","TIME_SYSTEM":"UTC"}];
